H1 CPF 01  gfz 2021 07 18 00  6991 terrasarx 
H2 0702601  6201 31698    2021 07 18 00 59 42 2021 07 23 00 00 42   120 1 1  0 0 0
H9
10 0 59414  33102.000000  0     -27149.569  -1283779.484  -6774436.674
10 0 59414  33222.000000  0    -651229.931   -613232.114  -6836807.605
10 0 59414  33342.000000  0   -1252110.911     78651.846  -6779958.676
10 0 59414  33462.000000  0   -1819122.263    779393.687  -6604867.942
10 0 59414  33582.000000  0   -2342391.968   1476175.420  -6314547.088
10 0 59414  33702.000000  0   -2813014.576   2156068.392  -5913995.326
10 0 59414  33822.000000  0   -3223202.136   2806268.458  -5410123.210
10 0 59414  33942.000000  0   -3566415.175   3414335.529  -4811645.375
10 0 59414  34062.000000  0   -3837471.813   3968432.498  -4128940.867
10 0 59414  34182.000000  0   -4032630.541   4457558.496  -3373882.113
10 0 59414  34302.000000  0   -4149644.578   4871771.605  -2559636.345
10 0 59414  34422.000000  0   -4187788.876   5202396.537  -1700441.350
10 0 59414  34542.000000  0   -4147857.733   5442212.429   -811358.218
10 0 59414  34662.000000  0   -4032131.224   5585616.005     91996.454
10 0 59414  34782.000000  0   -3844310.565   5628752.130    993731.167
10 0 59414  34902.000000  0   -3589424.902   5569611.853   1877967.555
10 0 59414  35022.000000  0   -3273710.519   5408092.668   2729130.904
10 0 59414  35142.000000  0   -2904464.174   5146018.024   3532233.287
10 0 59414  35262.000000  0   -2489877.512   4787118.525   4273142.579
10 0 59414  35382.000000  0   -2038856.090   4336975.642   4938834.514
10 0 59414  35502.000000  0   -1560827.863   3802928.595   5517622.425
10 0 59414  35622.000000  0   -1065544.697   3193946.850   5999360.370
10 0 59414  35742.000000  0    -562882.653   2520471.761   6375615.762
10 0 59414  35862.000000  0     -62645.588   1794231.751   6639810.153
10 0 59414  35982.000000  0     425625.156   1028034.986   6787328.914
10 0 59414  36102.000000  0     892832.162    235541.267   6815596.334
10 0 59414  36222.000000  0    1330490.254   -568980.560   6724117.496
10 0 59414  36342.000000  0    1730879.912  -1370908.954   6514487.423
10 0 59414  36462.000000  0    2087183.535  -2155534.619   6190365.074
10 0 59414  36582.000000  0    2393602.501  -2908330.668   5757414.456
10 0 59414  36702.000000  0    2645453.383  -3615223.675   5223211.029
10 0 59414  36822.000000  0    2839240.637  -4262859.958   4597114.582
10 0 59414  36942.000000  0    2972705.760  -4838863.312   3890111.117
10 0 59414  37062.000000  0    3044851.346  -5332078.501   3114622.751
10 0 59414  37182.000000  0    3055938.933  -5732795.054   2284290.456
10 0 59414  37302.000000  0    3007459.943  -6032945.787   1413731.243
10 0 59414  37422.000000  0    2902080.660  -6226273.877    518276.288
10 0 59414  37542.000000  0    2743564.209  -6308466.361   -386304.969
10 0 59414  37662.000000  0    2536668.847  -6277250.438  -1284092.035
10 0 59414  37782.000000  0    2287025.212  -6132445.865  -2159303.237
10 0 59414  37902.000000  0    2000997.396  -5875976.767  -2996580.038
10 0 59414  38022.000000  0    1685528.936  -5511840.615  -3781263.331
10 0 59414  38142.000000  0    1347980.315  -5046034.055  -4499650.530
10 0 59414  38262.000000  0     995963.666  -4486442.108  -5139231.699
10 0 59414  38382.000000  0     637176.239  -3842693.753  -5688900.858
10 0 59414  38502.000000  0     279236.801  -3125986.635  -6139139.928
10 0 59414  38622.000000  0     -70471.476  -2348885.326  -6482172.330
10 0 59414  38742.000000  0    -404948.614  -1525097.807  -6712085.840
10 0 59414  38862.000000  0    -717713.209   -669234.206  -6824924.544
10 0 59414  38982.000000  0   -1002923.552    203449.263  -6818749.709
10 0 59414  39102.000000  0   -1255483.643   1077316.194  -6693668.221
10 0 59414  39222.000000  0   -1471132.107   1936622.871  -6451830.828
10 0 59414  39342.000000  0   -1646512.548   2765794.602  -6097399.181
10 0 59414  39462.000000  0   -1779225.690   3549703.412  -5636483.460
10 0 59414  39582.000000  0   -1867861.490   4273942.391  -5077047.106
10 0 59414  39702.000000  0   -1912011.173   4925092.576  -4428781.188
10 0 59414  39822.000000  0   -1912258.697   5490977.479  -3702946.493
10 0 59414  39942.000000  0   -1870150.699   5960898.371  -2912186.007
10 0 59414  40062.000000  0   -1788145.554   6325846.285  -2070311.297
10 0 59414  40182.000000  0   -1669543.205   6578686.555  -1192063.799
10 0 59414  40302.000000  0   -1518396.148   6714308.428   -292855.528
10 0 59414  40422.000000  0   -1339403.929   6729738.180    611504.797
10 0 59414  40542.000000  0   -1137793.082   6624211.440   1505098.757
10 0 59414  40662.000000  0    -919185.945   6399196.937   2372189.920
10 0 59414  40782.000000  0    -689461.326   6058374.250   3197508.935
10 0 59414  40902.000000  0    -454611.482   5607569.118   3966528.247
10 0 59414  41022.000000  0    -220599.384   5054648.099   4665722.682
10 0 59414  41142.000000  0       6781.799   4409369.819   5282812.183
10 0 59414  41262.000000  0     222043.448   3683201.234   5806972.698
10 0 59414  41382.000000  0     420125.382   2889106.980   6229023.196
10 0 59414  41502.000000  0     596507.710   2041309.565   6541581.072
10 0 59414  41622.000000  0     747308.482   1155029.982   6739185.121
10 0 59414  41742.000000  0     869365.186    246211.402   6818384.986
10 0 59414  41862.000000  0     960298.856   -668766.866   6777797.169
10 0 59414  41982.000000  0    1018559.684  -1573383.915   6618129.004
10 0 59414  42102.000000  0    1043453.504  -2451275.225   6342167.379
10 0 59414  42222.000000  0    1035148.749  -3286529.523   5954733.746
10 0 59414  42342.000000  0     994662.891  -4063979.564   5462603.320
10 0 59414  42462.000000  0     923830.522  -4769479.510   4874391.533
10 0 59414  42582.000000  0     825253.079  -5390167.441   4200410.343
10 0 59414  42702.000000  0     702230.465  -5914709.437   3452492.882
10 0 59414  42822.000000  0     558675.823  -6333517.084   2643787.369
10 0 59414  42942.000000  0     399015.033  -6638932.571   1788524.921
10 0 59414  43062.000000  0     228073.560  -6825377.284    901766.181
10 0 59414  43182.000000  0      50953.481  -6889462.443      -869.943
10 0 59414  43302.000000  0    -127097.124  -6830054.196   -903491.873
10 0 59414  43422.000000  0    -300817.251  -6648291.030  -1790224.881
10 0 59414  43542.000000  0    -465065.649  -6347555.985  -2645497.476
10 0 59414  43662.000000  0    -614950.025  -5933405.687  -3454320.429
10 0 59414  43782.000000  0    -745949.814  -5413456.682  -4202552.981
10 0 59414  43902.000000  0    -854029.048  -4797231.864  -4877149.420
10 0 59414  44022.000000  0    -935736.818  -4095973.674  -5466381.118
10 0 59414  44142.000000  0    -988293.239  -3322428.749  -5960032.391
10 0 59414  44262.000000  0   -1009659.149  -2490608.720  -6349567.548
10 0 59414  44382.000000  0    -998588.648  -1615532.044  -6628267.125
10 0 59414  44502.000000  0    -954663.860   -712952.915  -6791332.526
10 0 59414  44622.000000  0    -878311.611    200918.991  -6835960.113
10 0 59414  44742.000000  0    -770800.845   1109703.679  -6761383.077
10 0 59414  44862.000000  0    -634221.821   1997136.594  -6568882.976
10 0 59414  44982.000000  0    -471447.674   2847352.173  -6261770.325
10 0 59414  45102.000000  0    -286077.792   3645162.582  -5845335.325
10 0 59414  45222.000000  0     -82363.600   4376327.747  -5326766.036
10 0 59414  45342.000000  0     134881.431   5027810.505  -4715035.339
10 0 59414  45462.000000  0     360386.112   5588015.189  -4020757.252
10 0 59414  45582.000000  0     588538.941   6047003.282  -3256012.145
10 0 59414  45702.000000  0     813516.101   6396680.872  -2434143.735
10 0 59414  45822.000000  0    1029417.527   6630954.337  -1569530.244
10 0 59414  45942.000000  0    1230407.806   6745849.126   -677332.510
10 0 59414  46062.000000  0    1410858.708   6739587.656    226776.037
10 0 59414  46182.000000  0    1565489.290   6612622.659   1126891.786
10 0 59414  46302.000000  0    1689499.068   6367625.968   2007168.311
10 0 59414  46422.000000  0    1778692.219   6009433.845   2852103.383
10 0 59414  46542.000000  0    1829589.261   5544949.293   3646819.653
10 0 59414  46662.000000  0    1839522.891   4983003.125   4377333.877
10 0 59414  46782.000000  0    1806715.956   4334176.798   5030807.200
10 0 59414  46902.000000  0    1730339.223   3610591.210   5595771.559
10 0 59414  47022.000000  0    1610547.946   2825671.750   6062325.565
10 0 59414  47142.000000  0    1448497.865   1993893.150   6422303.915
10 0 59414  47262.000000  0    1246339.196   1130506.873   6669414.948
10 0 59414  47382.000000  0    1007189.292    251257.977   6799343.577
10 0 59414  47502.000000  0     735084.707   -627901.088   6809821.359
10 0 59414  47622.000000  0     434912.925  -1491099.336   6700665.370
10 0 59414  47742.000000  0     112324.414  -2322833.816   6473781.263
10 0 59414  47862.000000  0    -226373.590  -3108248.578   6133132.099
10 0 59414  47982.000000  0    -574338.666  -3833401.377   5684671.073
10 0 59414  48102.000000  0    -924328.027  -4485511.782   5136242.451
10 0 59414  48222.000000  0   -1268845.961  -5053191.213   4497453.358
10 0 59414  48342.000000  0   -1600302.265  -5526651.652   3779512.134
10 0 59414  48462.000000  0   -1911176.443  -5897884.593   2995033.724
10 0 59414  48582.000000  0   -2194184.708  -6160805.124   2157817.948
10 0 59414  48702.000000  0   -2442445.950  -6311359.170   1282604.203
10 0 59414  48822.000000  0   -2649641.259  -6347590.951    384806.234
10 0 59414  48942.000000  0   -2810163.727  -6269668.509   -519766.987
10 0 59414  49062.000000  0   -2919254.631  -6079866.340  -1415198.423
10 0 59414  49182.000000  0   -2973122.778  -5782505.312  -2285751.742
10 0 59414  49302.000000  0   -2969043.993  -5383851.796  -3116155.277
10 0 59414  49422.000000  0   -2905437.769  -4891978.354  -3891875.063
10 0 59414  49542.000000  0   -2781919.236  -4316590.469  -4599369.785
99
